{"fetched_at":"2026-03-29T16:36:15Z","count":15609,"tles":[{"name":"STARLINK-3599","line1":"1 51814U 22017AY  26087.90498685  .00000763  00000+0  65990-4 0  9991","line2":"2 51814  53.2159 242.8591 0001438 117.5504 242.5634 15.08853453226981","category":"Starlink"}]}